{
  "type": "FeatureCollection",
  "features": [
    {
      "type": "Feature",
      "properties": {
        "norad_id": 15362,
        "name": "NOVA 3",
        "group": "nnss",
        "lat": 9.193979182649526,
        "lon": -99.56881872450971,
        "alt_km": 1198.0526089900923,
        "timestamp": "2025-12-02T06:27:53.282215+00:00",
        "meta_object_name": "NOVA 3",
        "meta_object_id": "1984-110A",
        "meta_epoch": "2025-12-01T19:22:39.459360",
        "meta_mean_motion": 13.23042465,
        "meta_eccentricity": 0.0031379,
        "meta_inclination": 90.1225,
        "meta_ra_of_asc_node": 80.4059,
        "meta_arg_of_pericenter": 2.6427,
        "meta_mean_anomaly": 128.9402,
        "meta_ephemeris_type": 0,
        "meta_classification_type": "U",
        "meta_norad_cat_id": 15362,
        "meta_element_set_no": 999,
        "meta_rev_at_epoch": 98554,
        "meta_bstar": 0.00010872,
        "meta_mean_motion_dot": 5.4e-07,
        "meta_mean_motion_ddot": 0,
        "tle_line1": "1 15362U 84110A   25335.80740115  .00000054  00000+0  10872-3 0  9994",
        "tle_line2": "2 15362  90.1225  80.4059 0031379   2.6427 128.9402 13.23042465985545"
      },
      "geometry": {
        "type": "Point",
        "coordinates": [
          -99.56881872450971,
          9.193979182649526
        ]
      }
    },
    {
      "type": "Feature",
      "properties": {
        "norad_id": 15935,
        "name": "OSCAR 30",
        "group": "nnss",
        "lat": 58.86430693276368,
        "lon": -80.0515564045973,
        "alt_km": 992.455808831015,
        "timestamp": "2025-12-02T06:27:53.282226+00:00",
        "meta_object_name": "OSCAR 30",
        "meta_object_id": "1985-066A",
        "meta_epoch": "2025-12-01T17:54:40.721760",
        "meta_mean_motion": 13.36075315,
        "meta_eccentricity": 0.0169313,
        "meta_inclination": 90.1645,
        "meta_ra_of_asc_node": 99.6675,
        "meta_arg_of_pericenter": 114.5928,
        "meta_mean_anomaly": 11.8379,
        "meta_ephemeris_type": 0,
        "meta_classification_type": "U",
        "meta_norad_cat_id": 15935,
        "meta_element_set_no": 999,
        "meta_rev_at_epoch": 96306,
        "meta_bstar": 0.00015981,
        "meta_mean_motion_dot": 9.9e-07,
        "meta_mean_motion_ddot": 0,
        "tle_line1": "1 15935U 85066A   25335.74630465  .00000099  00000+0  15981-3 0  9995",
        "tle_line2": "2 15935  90.1645  99.6675 0169313 114.5928  11.8379 13.36075315963062"
      },
      "geometry": {
        "type": "Point",
        "coordinates": [
          -80.0515564045973,
          58.86430693276368
        ]
      }
    },
    {
      "type": "Feature",
      "properties": {
        "norad_id": 15936,
        "name": "OSCAR 24",
        "group": "nnss",
        "lat": -23.56318234908794,
        "lon": -87.95768289514349,
        "alt_km": 1114.1856249381735,
        "timestamp": "2025-12-02T06:27:53.282236+00:00",
        "meta_object_name": "OSCAR 24",
        "meta_object_id": "1985-066B",
        "meta_epoch": "2025-12-01T19:14:51.020160",
        "meta_mean_motion": 13.35933143,
        "meta_eccentricity": 0.0170331,
        "meta_inclination": 90.1785,
        "meta_ra_of_asc_node": 92.112,
        "meta_arg_of_pericenter": 120.8758,
        "meta_mean_anomaly": 354.126,
        "meta_ephemeris_type": 0,
        "meta_classification_type": "U",
        "meta_norad_cat_id": 15936,
        "meta_element_set_no": 999,
        "meta_rev_at_epoch": 96497,
        "meta_bstar": 0.00011159,
        "meta_mean_motion_dot": 7.2e-07,
        "meta_mean_motion_ddot": 0,
        "tle_line1": "1 15936U 85066B   25335.80197940  .00000072  00000+0  11159-3 0  9993",
        "tle_line2": "2 15936  90.1785  92.1120 0170331 120.8758 354.1260 13.35933143964978"
      },
      "geometry": {
        "type": "Point",
        "coordinates": [
          -87.95768289514349,
          -23.56318234908794
        ]
      }
    },
    {
      "type": "Feature",
      "properties": {
        "norad_id": 17070,
        "name": "POLAR BEAR",
        "group": "nnss",
        "lat": -2.634117031346959,
        "lon": -175.82542077937873,
        "alt_km": 1010.2510139487022,
        "timestamp": "2025-12-02T06:27:53.282247+00:00",
        "meta_object_name": "POLAR BEAR",
        "meta_object_id": "1986-088A",
        "meta_epoch": "2025-12-01T20:03:05.669856",
        "meta_mean_motion": 13.75247265,
        "meta_eccentricity": 0.0040149,
        "meta_inclination": 89.6181,
        "meta_ra_of_asc_node": 184.2096,
        "meta_arg_of_pericenter": 151.0585,
        "meta_mean_anomaly": 219.8339,
        "meta_ephemeris_type": 0,
        "meta_classification_type": "U",
        "meta_norad_cat_id": 17070,
        "meta_element_set_no": 999,
        "meta_rev_at_epoch": 95829,
        "meta_bstar": 0.00011842,
        "meta_mean_motion_dot": 1.26e-06,
        "meta_mean_motion_ddot": 0,
        "tle_line1": "1 17070U 86088A   25335.83548229  .00000126  00000+0  11842-3 0  9991",
        "tle_line2": "2 17070  89.6181 184.2096 0040149 151.0585 219.8339 13.75247265958293"
      },
      "geometry": {
        "type": "Point",
        "coordinates": [
          -175.82542077937873,
          -2.634117031346959
        ]
      }
    },
    {
      "type": "Feature",
      "properties": {
        "norad_id": 18361,
        "name": "OSCAR 27",
        "group": "nnss",
        "lat": -41.72139798441208,
        "lon": 79.2144259913593,
        "alt_km": 1063.7433056505097,
        "timestamp": "2025-12-02T06:27:53.282257+00:00",
        "meta_object_name": "OSCAR 27",
        "meta_object_id": "1987-080A",
        "meta_epoch": "2025-12-01T19:57:28.811808",
        "meta_mean_motion": 13.44903069,
        "meta_eccentricity": 0.0102278,
        "meta_inclination": 90.3742,
        "meta_ra_of_asc_node": 78.8642,
        "meta_arg_of_pericenter": 255.4763,
        "meta_mean_anomaly": 103.5022,
        "meta_ephemeris_type": 0,
        "meta_classification_type": "U",
        "meta_norad_cat_id": 18361,
        "meta_element_set_no": 999,
        "meta_rev_at_epoch": 87410,
        "meta_bstar": 0.00018081,
        "meta_mean_motion_dot": 1.17e-06,
        "meta_mean_motion_ddot": 0,
        "tle_line1": "1 18361U 87080A   25335.83158347  .00000117  00000+0  18081-3 0  9998",
        "tle_line2": "2 18361  90.3742  78.8642 0102278 255.4763 103.5022 13.44903069874105"
      },
      "geometry": {
        "type": "Point",
        "coordinates": [
          79.2144259913593,
          -41.72139798441208
        ]
      }
    },
    {
      "type": "Feature",
      "properties": {
        "norad_id": 18362,
        "name": "OSCAR 29",
        "group": "nnss",
        "lat": -12.24373153245773,
        "lon": 79.42018320327767,
        "alt_km": 1070.2232477303323,
        "timestamp": "2025-12-02T06:27:53.282282+00:00",
        "meta_object_name": "OSCAR 29",
        "meta_object_id": "1987-080B",
        "meta_epoch": "2025-12-01T20:23:05.898048",
        "meta_mean_motion": 13.44445223,
        "meta_eccentricity": 0.0103665,
        "meta_inclination": 90.3755,
        "meta_ra_of_asc_node": 79.3229,
        "meta_arg_of_pericenter": 278.8683,
        "meta_mean_anomaly": 196.3233,
        "meta_ephemeris_type": 0,
        "meta_classification_type": "U",
        "meta_norad_cat_id": 18362,
        "meta_element_set_no": 999,
        "meta_rev_at_epoch": 87363,
        "meta_bstar": 0.00015139,
        "meta_mean_motion_dot": 9.8e-07,
        "meta_mean_motion_ddot": 0,
        "tle_line1": "1 18362U 87080B   25335.84937382  .00000098  00000+0  15139-3 0  9993",
        "tle_line2": "2 18362  90.3755  79.3229 0103665 278.8683 196.3233 13.44445223873632"
      },
      "geometry": {
        "type": "Point",
        "coordinates": [
          79.42018320327767,
          -12.24373153245773
        ]
      }
    },
    {
      "type": "Feature",
      "properties": {
        "norad_id": 19070,
        "name": "OSCAR 23",
        "group": "nnss",
        "lat": 29.18196937087556,
        "lon": 15.887426056980484,
        "alt_km": 1295.8408831987463,
        "timestamp": "2025-12-02T06:27:53.282294+00:00",
        "meta_object_name": "OSCAR 23",
        "meta_object_id": "1988-033A",
        "meta_epoch": "2025-12-01T20:20:56.254848",
        "meta_mean_motion": 13.27784562,
        "meta_eccentricity": 0.0188635,
        "meta_inclination": 90.3226,
        "meta_ra_of_asc_node": 16.0545,
        "meta_arg_of_pericenter": 210.2627,
        "meta_mean_anomaly": 325.4446,
        "meta_ephemeris_type": 0,
        "meta_classification_type": "U",
        "meta_norad_cat_id": 19070,
        "meta_element_set_no": 999,
        "meta_rev_at_epoch": 82108,
        "meta_bstar": 0.00020184,
        "meta_mean_motion_dot": 1.08e-06,
        "meta_mean_motion_ddot": 0,
        "tle_line1": "1 19070U 88033A   25335.84787332  .00000108  00000+0  20184-3 0  9995",
        "tle_line2": "2 19070  90.3226  16.0545 0188635 210.2627 325.4446 13.27784562821085"
      },
      "geometry": {
        "type": "Point",
        "coordinates": [
          15.887426056980484,
          29.18196937087556
        ]
      }
    }
  ]
}